OBJECT_NAME,OBJECT_ID,EPOCH,MEAN_MOTION,ECCENTRICITY,INCLINATION,RA_OF_ASC_NODE,ARG_OF_PERICENTER,MEAN_ANOMALY,EPHEMERIS_TYPE,CLASSIFICATION_TYPE,NORAD_CAT_ID,ELEMENT_SET_NO,REV_AT_EPOCH,BSTAR,MEAN_MOTION_DOT,MEAN_MOTION_DDOT
H-2A R/B,2006-002B,2026-06-06T10:36:14.393664,15.17929482,.00497692,98.2559,312.3010,299.7774,59.8513,0,U,28932,999,10789,.43195494E-3,.8972E-4,0
RESURS-DK 1,2006-021A,2026-06-06T07:50:07.023552,15.13168567,.00062535,69.9336,7.6660,300.7091,59.3458,0,U,29228,999,10093,.1643405E-3,.2815E-4,0
CZ-4B R/B,2006-046C,2026-06-06T08:59:23.197056,15.17704600,.0031563,97.5456,202.0155,322.1043,37.7969,0,U,29507,999,7349,.24371109E-3,.4905E-4,0
CZ-2C R/B,2007-010B,2026-06-06T13:30:51.612768,14.20273789,.00596348,98.4090,266.4343,36.8440,323.6813,0,U,31114,999,99233,.70506243E-4,.113E-5,0
COSMO-SKYMED 1,2007-023A,2026-06-06T13:47:22.422048,14.97053934,.0001326,97.8860,349.3422,80.7138,279.4233,0,U,31598,999,2820,.2035068E-3,.2285E-4,0
COSMOS 2428,2007-029A,2026-06-06T07:29:09.174336,14.12930692,.00072786,70.9377,17.3125,155.9470,204.1992,0,U,31792,999,97661,-.68259488E-4,-.175E-5,0
SL-16 R/B,2007-029B,2026-06-06T07:32:56.168736,14.14848844,.00022636,70.9758,346.0854,258.3150,275.5889,0,U,31793,999,97790,.1635436E-3,.268E-5,0
KORONAS-FOTON,2009-003A,2026-06-06T12:36:55.714176,15.45500584,.00105058,82.4290,183.3794,183.4511,176.6667,0,U,33504,999,95945,.2774649E-3,.13371E-3,0
CZ-2C R/B,2011-030B,2026-06-06T10:43:04.964736,14.81445560,.00537251,97.8651,113.0273,62.2187,50.9381,0,U,37731,999,80323,.1912982E-3,.1481E-4,0
H-2A R/B,2012-025E,2026-06-06T12:28:44.258016,14.95657009,.00444402,98.4817,131.7869,23.4856,336.8379,0,U,38341,999,76149,.32394987E-3,.3603E-4,0
SHIJIAN-16 (SJ-16),2013-057A,2026-06-06T15:34:36.076224,14.92592390,.00169737,74.9731,16.6426,255.3875,104.5432,0,U,39358,999,68477,.21743812E-3,.2214E-4,0
SL-4 R/B,2014-021B,2026-06-06T13:31:57.153216,15.41723399,.00915971,51.6055,262.8077,67.3204,293.7434,0,U,39679,999,66997,.32506972E-3,.15814E-3,0
ALOS-2,2014-029A,2026-06-06T14:07:21.006912,14.79468145,.00016862,97.9212,254.9043,90.6166,269.5239,0,U,39766,999,65001,.26746623E-3,.1946E-4,0
YAOGAN-29,2015-069A,2026-06-06T15:39:58.536576,14.83079423,.00029984,98.0029,186.2692,70.6560,289.4977,0,U,41038,999,56906,.14534979E-3,.1129E-4,0
ASTRO-H (HITOMI),2016-012A,2026-06-06T06:18:43.988832,15.10464113,.0009547,30.9976,144.7370,144.4332,215.6943,0,U,41337,999,56563,.15631295E-3,.2734E-4,0
HXMT (HUIYAN),2017-034A,2026-06-06T14:37:42.534912,15.18399285,.00301664,43.0132,241.9386,77.2037,283.2179,0,U,42758,999,49605,.28292986E-3,.5754E-4,0
SAOCOM 1A,2018-076A,2026-06-06T14:30:19.613088,14.82166115,.00015071,97.8883,344.5066,80.0086,280.1297,0,U,43641,999,41453,.60360223E-4,.428E-5,0
H-2A R/B,2018-084L,2026-06-06T04:22:47.232768,15.44726226,.00244215,98.8588,33.6707,77.4864,282.9110,0,U,43682,999,41942,.5864969E-3,.27652E-3,0
SAOCOM 1B,2020-059A,2026-06-06T15:15:21.040416,14.82163700,.00015093,97.8887,343.6319,76.6948,283.4434,0,U,46265,999,31192,.76575482E-4,.558E-5,0
CSS (TIANHE),2021-035A,2026-06-06T14:38:07.699776,15.60358302,.00091619,41.4693,26.3518,355.2486,4.8264,0,U,48274,999,29151,.3466432E-3,.29051E-3,0
COSMOS 2550,2021-056A,2026-06-06T12:36:46.588608,15.33728508,.00086918,67.1421,132.1562,266.8407,93.1752,0,U,48865,999,27708,.20609337E-3,.6574E-4,0
CZ-2C R/B,2022-058K,2026-06-05T11:12:48.003264,15.61027103,.00331814,50.1841,224.4659,218.6084,141.2516,0,U,52794,999,22381,.36772028E-3,.32018E-3,0
CZ-2C R/B,2022-132E,2026-06-06T12:20:50.703072,15.70275747,.00169977,97.2910,164.0719,117.0126,243.2874,0,U,54039,999,20427,.54120159E-3,.66501E-3,0
GSLV R/B,2022-138AN,2026-06-06T05:22:01.352064,14.97209154,.0021,87.3803,136.6665,182.2582,177.8559,0,U,54149,999,19717,.30329E-3,.355E-4,0
XRISM,2023-137A,2026-06-06T10:23:46.302720,15.12371035,.00078406,31.0024,69.2561,217.1216,142.8881,0,U,57800,999,15123,.30290679E-3,.5488E-4,0
ACS3,2024-077B,2026-06-06T13:57:22.979808,13.93749382,.00477652,97.1687,78.7355,67.7110,292.9111,0,U,59588,999,10656,.40688408E-1,.54416E-3,0
CZ-8A R/B,2025-231K,2026-06-06T01:57:51.897024,14.30151850,.0116476,50.0038,86.5627,184.9058,175.0725,0,U,66004,999,3335,.41733907E-4,-.47E-6,0
SZ-21 MODULE,2025-246C,2026-06-06T07:35:07.958112,15.75457395,.00071848,41.4728,14.9847,283.9983,76.0062,0,U,66515,999,3202,.36001641E-3,.56445E-3,0
