H-2A R/B                
1 28932U 06002B   26157.44183326  .00008972  00000+0  43195-3 0  9994
2 28932  98.2559 312.3010 0049769 299.7774  59.8513 15.17929482107898
RESURS-DK 1             
1 29228U 06021A   26157.32647018  .00002815  00000+0  16434-3 0  9990
2 29228  69.9336   7.6660 0006253 300.7091  59.3458 15.13168567100932
CZ-4B R/B               
1 29507U 06046C   26157.37457404  .00004905  00000+0  24371-3 0  9991
2 29507  97.5456 202.0155 0031563 322.1043  37.7969 15.17704600 73494
CZ-2C R/B               
1 31114U 07010B   26157.56309737  .00000113  00000+0  70506-4 0  9995
2 31114  98.4090 266.4343 0059634  36.8440 323.6813 14.20273789992337
COSMO-SKYMED 1          
1 31598U 07023A   26157.57456507  .00002285  00000+0  20351-3 0  9998
2 31598  97.8860 349.3422 0001326  80.7138 279.4233 14.97053934 28209
COSMOS 2428             
1 31792U 07029A   26157.31191174 -.00000175  00000+0 -68259-4 0  9996
2 31792  70.9377  17.3125 0007278 155.9470 204.1992 14.12930692976614
SL-16 R/B               
1 31793U 07029B   26157.31453899  .00000268  00000+0  16354-3 0  9991
2 31793  70.9758 346.0854 0002263 258.3150 275.5889 14.14848844977900
KORONAS-FOTON           
1 33504U 09003A   26157.52564484  .00013371  00000+0  27746-3 0  9999
2 33504  82.4290 183.3794 0010505 183.4511 176.6667 15.45500584959459
CZ-2C R/B               
1 37731U 11030B   26157.44658524  .00001481  00000+0  19130-3 0  9995
2 37731  97.8651 113.0273 0053725  62.2187  50.9381 14.81445560803234
H-2A R/B                
1 38341U 12025E   26157.51995669  .00003603  00000+0  32395-3 0  9996
2 38341  98.4817 131.7869 0044440  23.4856 336.8379 14.95657009761499
SHIJIAN-16 (SJ-16)      
1 39358U 13057A   26157.64902866  .00002214  00000+0  21744-3 0  9995
2 39358  74.9731  16.6426 0016973 255.3875 104.5432 14.92592390684772
SL-4 R/B                
1 39679U 14021B   26157.56385594  .00015814  00000+0  32507-3 0  9996
2 39679  51.6055 262.8077 0091597  67.3204 293.7434 15.41723399669976
ALOS-2                  
1 39766U 14029A   26157.58843758  .00001946  00000+0  26747-3 0  9994
2 39766  97.9212 254.9043 0001686  90.6166 269.5239 14.79468145650016
YAOGAN-29               
1 41038U 15069A   26157.65276084  .00001129  00000+0  14535-3 0  9999
2 41038  98.0029 186.2692 0002998  70.6560 289.4977 14.83079423569065
ASTRO-H (HITOMI)        
1 41337U 16012A   26157.26300913  .00002734  00000+0  15631-3 0  9997
2 41337  30.9976 144.7370 0009547 144.4332 215.6943 15.10464113565637
HXMT (HUIYAN)           
1 42758U 17034A   26157.60952008  .00005754  00000+0  28293-3 0  9999
2 42758  43.0132 241.9386 0030166  77.2037 283.2179 15.18399285496053
SAOCOM 1A               
1 43641U 18076A   26157.60439367  .00000428  00000+0  60360-4 0  9991
2 43641  97.8883 344.5066 0001507  80.0086 280.1297 14.82166115414537
H-2A R/B                
1 43682U 18084L   26157.18249112  .00027652  00000+0  58650-3 0  9991
2 43682  98.8588  33.6707 0024421  77.4864 282.9110 15.44726226419428
SAOCOM 1B               
1 46265U 20059A   26157.63566019  .00000558  00000+0  76575-4 0  9997
2 46265  97.8887 343.6319 0001509  76.6948 283.4434 14.82163700311922
CSS (TIANHE)            
1 48274U 21035A   26157.60981134  .00029051  00000+0  34664-3 0  9991
2 48274  41.4693  26.3518 0009161 355.2486   4.8264 15.60358302291514
COSMOS 2550             
1 48865U 21056A   26157.52553922  .00006574  00000+0  20609-3 0  9990
2 48865  67.1421 132.1562 0008691 266.8407  93.1752 15.33728508277084
CZ-2C R/B               
1 52794U 22058K   26156.46722226  .00032018  00000+0  36772-3 0  9996
2 52794  50.1841 224.4659 0033181 218.6084 141.2516 15.61027103223817
CZ-2C R/B               
1 54039U 22132E   26157.51447573  .00066501  00000+0  54120-3 0  9990
2 54039  97.2910 164.0719 0016997 117.0126 243.2874 15.70275747204279
GSLV R/B                
1 54149U 22138AN  26157.22362676  .00003550  00000+0  30329-3 0  9996
2 54149  87.3803 136.6665 0021000 182.2582 177.8559 14.97209154197177
XRISM                   
1 57800U 23137A   26157.43317480  .00005488  00000+0  30291-3 0  9999
2 57800  31.0024  69.2561 0007840 217.1216 142.8881 15.12371035151232
ACS3                    
1 59588U 24077B   26157.58151597  .00054416  00000+0  40688-1 0  9993
2 59588  97.1687  78.7355 0047765  67.7110 292.9111 13.93749382106563
CZ-8A R/B               
1 66004U 25231K   26157.08185066 -.00000047  00000+0  41734-4 0  9998
2 66004  50.0038  86.5627 0116476 184.9058 175.0725 14.30151850 33357
SZ-21 MODULE            
1 66515U 25246C   26157.31606433  .00056445  00000+0  36002-3 0  9996
2 66515  41.4728  14.9847 0007184 283.9983  76.0062 15.75457395 32025
